{
  "type": "FeatureCollection",
  "features": [
    {
      "type": "Feature",
      "properties": {
        "norad_id": 44793,
        "name": "BEIDOU-3 M22 (C44)",
        "group": "gnss",
        "lat": -6.800996451989161,
        "lon": 130.96613832550736,
        "alt_km": 21545.37895534244,
        "timestamp": "2025-12-22T16:55:17.705346+00:00",
        "meta_object_name": "BEIDOU-3 M22 (C44)",
        "meta_object_id": "2019-078A",
        "meta_epoch": "2025-12-21T21:17:38.113152",
        "meta_mean_motion": 1.86232212,
        "meta_eccentricity": 0.0006079,
        "meta_inclination": 54.0999,
        "meta_ra_of_asc_node": 306.0653,
        "meta_arg_of_pericenter": 23.9772,
        "meta_mean_anomaly": 336.0508,
        "meta_ephemeris_type": 0,
        "meta_classification_type": "U",
        "meta_norad_cat_id": 44793,
        "meta_element_set_no": 999,
        "meta_rev_at_epoch": 4134,
        "meta_bstar": 0,
        "meta_mean_motion_dot": -5.9e-07,
        "meta_mean_motion_ddot": 0,
        "tle_line1": "1 44793U 19078A   25355.88724668 -.00000059  00000+0  00000+0 0  9994",
        "tle_line2": "2 44793  54.0999 306.0653 0006079  23.9772 336.0508  1.86232212 41344"
      },
      "geometry": {
        "type": "Point",
        "coordinates": [
          130.96613832550736,
          -6.800996451989161
        ]
      }
    },
    {
      "type": "Feature",
      "properties": {
        "norad_id": 44794,
        "name": "BEIDOU-3 M21 (C43)",
        "group": "gnss",
        "lat": 53.662776180344366,
        "lon": 46.03973876556934,
        "alt_km": 21520.663232644674,
        "timestamp": "2025-12-22T16:55:17.705366+00:00",
        "meta_object_name": "BEIDOU-3 M21 (C43)",
        "meta_object_id": "2019-078B",
        "meta_epoch": "2025-12-22T00:36:11.320992",
        "meta_mean_motion": 1.86227905,
        "meta_eccentricity": 0.00042975,
        "meta_inclination": 54.0732,
        "meta_ra_of_asc_node": 306.0255,
        "meta_arg_of_pericenter": 12.7987,
        "meta_mean_anomaly": 347.2125,
        "meta_ephemeris_type": 0,
        "meta_classification_type": "U",
        "meta_norad_cat_id": 44794,
        "meta_element_set_no": 999,
        "meta_rev_at_epoch": 4135,
        "meta_bstar": 0,
        "meta_mean_motion_dot": -5.8e-07,
        "meta_mean_motion_ddot": 0,
        "tle_line1": "1 44794U 19078B   25356.02513103 -.00000058  00000+0  00000+0 0  9991",
        "tle_line2": "2 44794  54.0732 306.0255 0004297  12.7987 347.2125  1.86227905 41355"
      },
      "geometry": {
        "type": "Point",
        "coordinates": [
          46.03973876556934,
          53.662776180344366
        ]
      }
    },
    {
      "type": "Feature",
      "properties": {
        "norad_id": 44850,
        "name": "COSMOS 2544 (759)",
        "group": "gnss",
        "lat": 65.48501251707074,
        "lon": 170.5278824548612,
        "alt_km": 19157.202951150517,
        "timestamp": "2025-12-22T16:55:17.705384+00:00",
        "meta_object_name": "COSMOS 2544 (759)",
        "meta_object_id": "2019-088A",
        "meta_epoch": "2025-12-22T02:49:35.423040",
        "meta_mean_motion": 2.13102165,
        "meta_eccentricity": 0.00143115,
        "meta_inclination": 65.4645,
        "meta_ra_of_asc_node": 79.6449,
        "meta_arg_of_pericenter": 250.2994,
        "meta_mean_anomaly": 109.5877,
        "meta_ephemeris_type": 0,
        "meta_classification_type": "U",
        "meta_norad_cat_id": 44850,
        "meta_element_set_no": 999,
        "meta_rev_at_epoch": 4694,
        "meta_bstar": 0,
        "meta_mean_motion_dot": -3e-08,
        "meta_mean_motion_ddot": 0,
        "tle_line1": "1 44850U 19088A   25356.11777110 -.00000003  00000+0  00000+0 0  9995",
        "tle_line2": "2 44850  65.4645  79.6449 0014311 250.2994 109.5877  2.13102165 46944"
      },
      "geometry": {
        "type": "Point",
        "coordinates": [
          170.5278824548612,
          65.48501251707074
        ]
      }
    },
    {
      "type": "Feature",
      "properties": {
        "norad_id": 44864,
        "name": "BEIDOU-3 M19 (C41)",
        "group": "gnss",
        "lat": -50.72035786161475,
        "lon": 14.390529813345276,
        "alt_km": 21482.86174878113,
        "timestamp": "2025-12-22T16:55:17.705404+00:00",
        "meta_object_name": "BEIDOU-3 M19 (C41)",
        "meta_object_id": "2019-090A",
        "meta_epoch": "2025-12-22T06:47:40.337664",
        "meta_mean_motion": 1.8623164,
        "meta_eccentricity": 0.00183372,
        "meta_inclination": 56.4008,
        "meta_ra_of_asc_node": 68.6452,
        "meta_arg_of_pericenter": 285.1073,
        "meta_mean_anomaly": 83.7045,
        "meta_ephemeris_type": 0,
        "meta_classification_type": "U",
        "meta_norad_cat_id": 44864,
        "meta_element_set_no": 999,
        "meta_rev_at_epoch": 4094,
        "meta_bstar": 0,
        "meta_mean_motion_dot": -2.9e-07,
        "meta_mean_motion_ddot": 0,
        "tle_line1": "1 44864U 19090A   25356.28310576 -.00000029  00000+0  00000+0 0  9998",
        "tle_line2": "2 44864  56.4008  68.6452 0018337 285.1073  83.7045  1.86231640 40945"
      },
      "geometry": {
        "type": "Point",
        "coordinates": [
          14.390529813345276,
          -50.72035786161475
        ]
      }
    },
    {
      "type": "Feature",
      "properties": {
        "norad_id": 44865,
        "name": "BEIDOU-3 M20 (C42)",
        "group": "gnss",
        "lat": 17.741637226581386,
        "lon": 80.94694773338635,
        "alt_km": 21521.593013295867,
        "timestamp": "2025-12-22T16:55:17.705422+00:00",
        "meta_object_name": "BEIDOU-3 M20 (C42)",
        "meta_object_id": "2019-090B",
        "meta_epoch": "2025-12-22T03:27:20.583072",
        "meta_mean_motion": 1.86231562,
        "meta_eccentricity": 0.00154748,
        "meta_inclination": 56.4023,
        "meta_ra_of_asc_node": 68.6841,
        "meta_arg_of_pericenter": 297.2268,
        "meta_mean_anomaly": 67.9266,
        "meta_ephemeris_type": 0,
        "meta_classification_type": "U",
        "meta_norad_cat_id": 44865,
        "meta_element_set_no": 999,
        "meta_rev_at_epoch": 4092,
        "meta_bstar": 0,
        "meta_mean_motion_dot": -3e-07,
        "meta_mean_motion_ddot": 0,
        "tle_line1": "1 44865U 19090B   25356.14398823 -.00000030  00000+0  00000+0 0  9997",
        "tle_line2": "2 44865  56.4023  68.6841 0015474 297.2268  67.9266  1.86231562 40924"
      },
      "geometry": {
        "type": "Point",
        "coordinates": [
          80.94694773338635,
          17.741637226581386
        ]
      }
    },
    {
      "type": "Feature",
      "properties": {
        "norad_id": 45344,
        "name": "BEIDOU-3 G2 (C60)",
        "group": "gnss",
        "lat": 0.9374749214899719,
        "lon": 65.35695743062183,
        "alt_km": 35793.15228686293,
        "timestamp": "2025-12-22T16:55:17.705447+00:00",
        "meta_object_name": "BEIDOU-3 G2 (C60)",
        "meta_object_id": "2020-017A",
        "meta_epoch": "2025-12-19T13:38:45.370752",
        "meta_mean_motion": 1.00273166,
        "meta_eccentricity": 0.0002079,
        "meta_inclination": 2.5096,
        "meta_ra_of_asc_node": 44.0024,
        "meta_arg_of_pericenter": 233.0917,
        "meta_mean_anomaly": 96.0359,
        "meta_ephemeris_type": 0,
        "meta_classification_type": "U",
        "meta_norad_cat_id": 45344,
        "meta_element_set_no": 999,
        "meta_rev_at_epoch": 2145,
        "meta_bstar": 0,
        "meta_mean_motion_dot": -1.18e-06,
        "meta_mean_motion_ddot": 0,
        "tle_line1": "1 45344U 20017A   25353.56858068 -.00000118  00000+0  00000+0 0  9993",
        "tle_line2": "2 45344   2.5096  44.0024 0002079 233.0917  96.0359  1.00273166 21451"
      },
      "geometry": {
        "type": "Point",
        "coordinates": [
          65.35695743062183,
          0.9374749214899719
        ]
      }
    },
    {
      "type": "Feature",
      "properties": {
        "norad_id": 45358,
        "name": "COSMOS 2545 (760)",
        "group": "gnss",
        "lat": -51.10248727483894,
        "lon": -77.70365848619431,
        "alt_km": 19117.068543277866,
        "timestamp": "2025-12-22T16:55:17.705465+00:00",
        "meta_object_name": "COSMOS 2545 (760)",
        "meta_object_id": "2020-018A",
        "meta_epoch": "2025-12-20T21:44:12.708096",
        "meta_mean_motion": 2.13102664,
        "meta_eccentricity": 0.00114269,
        "meta_inclination": 64.4648,
        "meta_ra_of_asc_node": 318.6832,
        "meta_arg_of_pericenter": 250.0027,
        "meta_mean_anomaly": 109.8672,
        "meta_ephemeris_type": 0,
        "meta_classification_type": "U",
        "meta_norad_cat_id": 45358,
        "meta_element_set_no": 999,
        "meta_rev_at_epoch": 4486,
        "meta_bstar": 0,
        "meta_mean_motion_dot": -5e-07,
        "meta_mean_motion_ddot": 0,
        "tle_line1": "1 45358U 20018A   25354.90570264 -.00000050  00000+0  00000+0 0  9992",
        "tle_line2": "2 45358  64.4648 318.6832 0011426 250.0027 109.8672  2.13102664 44860"
      },
      "geometry": {
        "type": "Point",
        "coordinates": [
          -77.70365848619431,
          -51.10248727483894
        ]
      }
    }
  ]
}